{"type": "FeatureCollection", "features": [ {"type": "Feature", "properties": {"norad_id": 43213, "name": "FENGYUN 1C DEB", "group": "fengyun-1c-debris", "lat": 75.34369629450254, "lon": -101.87904785482478, "alt_km": 839.629241592972, "timestamp": "2025-12-03T15:48:03.360056+00:00", "meta": {"OBJECT_NAME": "FENGYUN 1C DEB", "OBJECT_ID": "1999-025EYM", "EPOCH": "2025-12-03T03:30:49.973472", "MEAN_MOTION": 14.23745393, "ECCENTRICITY": 0.00540559, "INCLINATION": 98.7343, "RA_OF_ASC_NODE": 41.6102, "ARG_OF_PERICENTER": 254.7571, "MEAN_ANOMALY": 104.7627, "EPHEMERIS_TYPE": 0, "CLASSIFICATION_TYPE": "U", "NORAD_CAT_ID": 43213, "ELEMENT_SET_NO": 999, "REV_AT_EPOCH": 40236, "BSTAR": 0.0020431704, "MEAN_MOTION_DOT": 4.697e-05, "MEAN_MOTION_DDOT": 0}, "tle": {"line1": "1 43213U 99025EYM 25337.14641173  .00004697  00000+0  20432-2 0  9993", "line2": "2 43213  98.7343  41.6102 0054055 254.7571 104.7627 14.23745393402366"}}, "geometry": {"type": "Point", "coordinates": [-101.87904785482478, 75.34369629450254]}}, {"type": "Feature", "properties": {"norad_id": 43214, "name": "FENGYUN 1C DEB", "group": "fengyun-1c-debris", "lat": 18.80277697643613, "lon": 39.42403172290135, "alt_km": 835.1633099126893, "timestamp": "2025-12-03T15:48:03.360065+00:00", "meta": {"OBJECT_NAME": "FENGYUN 1C DEB", "OBJECT_ID": "1999-025EYN", "EPOCH": "2025-12-03T03:54:25.570080", "MEAN_MOTION": 14.2401605, "ECCENTRICITY": 0.00549615, "INCLINATION": 98.7372, "RA_OF_ASC_NODE": 41.933, "ARG_OF_PERICENTER": 254.3993, "MEAN_ANOMALY": 105.1115, "EPHEMERIS_TYPE": 0, "CLASSIFICATION_TYPE": "U", "NORAD_CAT_ID": 43214, "ELEMENT_SET_NO": 999, "REV_AT_EPOCH": 40267, "BSTAR": 0.0021229826, "MEAN_MOTION_DOT": 4.91e-05, "MEAN_MOTION_DDOT": 0}, "tle": {"line1": "1 43214U 99025EYN 25337.16279595  .00004910  00000+0  21230-2 0  9996", "line2": "2 43214  98.7372  41.9330 0054961 254.3993 105.1115 14.24016050402678"}}, "geometry": {"type": "Point", "coordinates": [39.42403172290135, 18.80277697643613]}}, {"type": "Feature", "properties": {"norad_id": 43358, "name": "FENGYUN 1C DEB", "group": "fengyun-1c-debris", "lat": -24.864840686211416, "lon": 103.01233929313658, "alt_km": 1196.0791344146737, "timestamp": "2025-12-03T15:48:03.360074+00:00", "meta": {"OBJECT_NAME": "FENGYUN 1C DEB", "OBJECT_ID": "1999-025EYP", "EPOCH": "2025-12-03T06:58:22.496160", "MEAN_MOTION": 13.40311994, "ECCENTRICITY": 0.03674039, "INCLINATION": 98.688, "RA_OF_ASC_NODE": 98.6326, "ARG_OF_PERICENTER": 226.4044, "MEAN_ANOMALY": 130.6054, "EPHEMERIS_TYPE": 0, "CLASSIFICATION_TYPE": "U", "NORAD_CAT_ID": 43358, "ELEMENT_SET_NO": 999, "REV_AT_EPOCH": 53604, "BSTAR": 0.0031256008, "MEAN_MOTION_DOT": 2.502e-05, "MEAN_MOTION_DDOT": 0}, "tle": {"line1": "1 43358U 99025EYP 25337.29053815  .00002502  00000+0  31256-2 0  9998", "line2": "2 43358  98.6880  98.6326 0367403 226.4044 130.6054 13.40311994536045"}}, "geometry": {"type": "Point", "coordinates": [103.01233929313658, -24.864840686211416]}}, {"type": "Feature", "properties": {"norad_id": 43359, "name": "FENGYUN 1C DEB", "group": "fengyun-1c-debris", "lat": -48.99098448020031, "lon": 67.95548663686144, "alt_km": 822.9802609365261, "timestamp": "2025-12-03T15:48:03.360083+00:00", "meta": {"OBJECT_NAME": "FENGYUN 1C DEB", "OBJECT_ID": "1999-025EYQ", "EPOCH": "2025-12-03T04:13:15.477312", "MEAN_MOTION": 14.23022125, "ECCENTRICITY": 0.00741146, "INCLINATION": 99.054, "RA_OF_ASC_NODE": 56.8934, "ARG_OF_PERICENTER": 43.17, "MEAN_ANOMALY": 317.5255, "EPHEMERIS_TYPE": 0, "CLASSIFICATION_TYPE": "U", "NORAD_CAT_ID": 43359, "ELEMENT_SET_NO": 999, "REV_AT_EPOCH": 47613, "BSTAR": 0.0025639007, "MEAN_MOTION_DOT": 5.9e-05, "MEAN_MOTION_DDOT": 0}, "tle": {"line1": "1 43359U 99025EYQ 25337.17587358  .00005900  00000+0  25639-2 0  9993", "line2": "2 43359  99.0540  56.8934 0074114  43.1700 317.5255 14.23022125476131"}}, "geometry": {"type": "Point", "coordinates": [67.95548663686144, -48.99098448020031]}}, {"type": "Feature", "properties": {"norad_id": 45526, "name": "FENGYUN 1C DEB", "group": "fengyun-1c-debris", "lat": -27.00929165749191, "lon": 54.32644713344476, "alt_km": 807.3996241450996, "timestamp": "2025-12-03T15:48:03.360092+00:00", "meta": {"OBJECT_NAME": "FENGYUN 1C DEB", "OBJECT_ID": "1999-025EYR", "EPOCH": "2025-12-03T04:08:22.721280", "MEAN_MOTION": 14.25804851, "ECCENTRICITY": 0.00538527, "INCLINATION": 98.7653, "RA_OF_ASC_NODE": 49.33, "ARG_OF_PERICENTER": 249.8754, "MEAN_ANOMALY": 109.6626, "EPHEMERIS_TYPE": 0, "CLASSIFICATION_TYPE": "U", "NORAD_CAT_ID": 45526, "ELEMENT_SET_NO": 999, "REV_AT_EPOCH": 43240, "BSTAR": 0.0024328402, "MEAN_MOTION_DOT": 5.831e-05, "MEAN_MOTION_DDOT": 0}, "tle": {"line1": "1 45526U 99025EYR 25337.17248520  .00005831  00000+0  24328-2 0  9993", "line2": "2 45526  98.7653  49.3300 0053852 249.8754 109.6626 14.25804851432404"}}, "geometry": {"type": "Point", "coordinates": [54.32644713344476, -27.00929165749191]}}, {"type": "Feature", "properties": {"norad_id": 45527, "name": "FENGYUN 1C DEB", "group": "fengyun-1c-debris", "lat": 25.35105507049125, "lon": 40.148499511925294, "alt_km": 836.8029707612204, "timestamp": "2025-12-03T15:48:03.360101+00:00", "meta": {"OBJECT_NAME": "FENGYUN 1C DEB", "OBJECT_ID": "1999-025EYS", "EPOCH": "2025-12-03T03:52:44.018112", "MEAN_MOTION": 14.24385911, "ECCENTRICITY": 0.00544277, "INCLINATION": 98.7404, "RA_OF_ASC_NODE": 43.8343, "ARG_OF_PERICENTER": 253.1442, "MEAN_ANOMALY": 106.3763, "EPHEMERIS_TYPE": 0, "CLASSIFICATION_TYPE": "U", "NORAD_CAT_ID": 45527, "ELEMENT_SET_NO": 999, "REV_AT_EPOCH": 39443, "BSTAR": 0.0021614985, "MEAN_MOTION_DOT": 5.035e-05, "MEAN_MOTION_DDOT": 0}, "tle": {"line1": "1 45527U 99025EYS 25337.16162058  .00005035  00000+0  21615-2 0  9996", "line2": "2 45527  98.7404  43.8343 0054427 253.1442 106.3763 14.24385911394432"}}, "geometry": {"type": "Point", "coordinates": [40.148499511925294, 25.35105507049125]}}, {"type": "Feature", "properties": {"norad_id": 46440, "name": "FENGYUN 1C DEB", "group": "fengyun-1c-debris", "lat": 23.06974333893786, "lon": -171.4008623782737, "alt_km": 697.6685599053717, "timestamp": "2025-12-03T15:48:03.360110+00:00", "meta": {"OBJECT_NAME": "FENGYUN 1C DEB", "OBJECT_ID": "1999-025EYV", "EPOCH": "2025-11-30T21:42:54.078912", "MEAN_MOTION": 14.20290607, "ECCENTRICITY": 0.0175806, "INCLINATION": 98.5947, "RA_OF_ASC_NODE": 2.2289, "ARG_OF_PERICENTER": 169.3708, "MEAN_ANOMALY": 316.1091, "EPHEMERIS_TYPE": 0, "CLASSIFICATION_TYPE": "U", "NORAD_CAT_ID": 46440, "ELEMENT_SET_NO": 999, "REV_AT_EPOCH": 62201, "BSTAR": 0.00034066806, "MEAN_MOTION_DOT": 8.08e-06, "MEAN_MOTION_DDOT": 0}, "tle": {"line1": "1 46440U 99025EYV 25334.90479258  .00000808  00000+0  34067-3 0  9992", "line2": "2 46440  98.5947   2.2289 0175806 169.3708 316.1091 14.20290607622019"}}, "geometry": {"type": "Point", "coordinates": [-171.4008623782737, 23.06974333893786]}}, {"type": "Feature", "properties": {"norad_id": 46443, "name": "FENGYUN 1C DEB", "group": "fengyun-1c-debris", "lat": -56.826936602357634, "lon": 58.68966492496986, "alt_km": 850.9888664425944, "timestamp": "2025-12-03T15:48:03.360120+00:00", "meta": {"OBJECT_NAME": "FENGYUN 1C DEB", "OBJECT_ID": "1999-025EYY", "EPOCH": "2025-11-30T03:06:17.115264", "MEAN_MOTION": 14.10725153, "ECCENTRICITY": 0.00970161, "INCLINATION": 99.2151, "RA_OF_ASC_NODE": 40.6932, "ARG_OF_PERICENTER": 31.9391, "MEAN_ANOMALY": 358.4735, "EPHEMERIS_TYPE": 0, "CLASSIFICATION_TYPE": "U", "NORAD_CAT_ID": 46443, "ELEMENT_SET_NO": 999, "REV_AT_EPOCH": 59418, "BSTAR": 0.0019203135, "MEAN_MOTION_DOT": 3.542e-05, "MEAN_MOTION_DDOT": 0}, "tle": {"line1": "1 46443U 99025EYY 25334.12936476  .00003542  00000+0  19203-2 0  9991", "line2": "2 46443  99.2151  40.6932 0097016  31.9391 358.4735 14.10725153594184"}}, "geometry": {"type": "Point", "coordinates": [58.68966492496986, -56.826936602357634]}}, {"type": "Feature", "properties": {"norad_id": 46444, "name": "FENGYUN 1C DEB", "group": "fengyun-1c-debris", "lat": 8.991503996328959, "lon": 161.25134674977804, "alt_km": 743.4174175525977, "timestamp": "2025-12-03T15:48:03.360129+00:00", "meta": {"OBJECT_NAME": "FENGYUN 1C DEB", "OBJECT_ID": "1999-025EYZ", "EPOCH": "2025-11-29T06:45:16.022016", "MEAN_MOTION": 14.27103748, "ECCENTRICITY": 0.00836434, "INCLINATION": 98.5135, "RA_OF_ASC_NODE": 335.6326, "ARG_OF_PERICENTER": 190.2717, "MEAN_ANOMALY": 186.5379, "EPHEMERIS_TYPE": 0, "CLASSIFICATION_TYPE": "U", "NORAD_CAT_ID": 46444, "ELEMENT_SET_NO": 999, "REV_AT_EPOCH": 62390, "BSTAR": 0.00050592492, "MEAN_MOTION_DOT": 1.237e-05, "MEAN_MOTION_DDOT": 0}, "tle": {"line1": "1 46444U 99025EYZ 25333.28143544  .00001237  00000+0  50592-3 0  9990", "line2": "2 46444  98.5135 335.6326 0083643 190.2717 186.5379 14.27103748623900"}}, "geometry": {"type": "Point", "coordinates": [161.25134674977804, 8.991503996328959]}}, {"type": "Feature", "properties": {"norad_id": 46449, "name": "FENGYUN 1C DEB", "group": "fengyun-1c-debris", "lat": -46.61016997893257, "lon": -177.00235973595025, "alt_km": 782.7339521152498, "timestamp": "2025-12-03T15:48:03.360138+00:00", "meta": {"OBJECT_NAME": "FENGYUN 1C DEB", "OBJECT_ID": "1999-025EZE", "EPOCH": "2025-11-27T19:57:02.428704", "MEAN_MOTION": 14.19021773, "ECCENTRICITY": 0.02029501, "INCLINATION": 98.6463, "RA_OF_ASC_NODE": 6.5721, "ARG_OF_PERICENTER": 314.0231, "MEAN_ANOMALY": 44.4375, "EPHEMERIS_TYPE": 0, "CLASSIFICATION_TYPE": "U", "NORAD_CAT_ID": 46449, "ELEMENT_SET_NO": 999, "REV_AT_EPOCH": 57425, "BSTAR": 0.00050383916, "MEAN_MOTION_DOT": 1.244e-05, "MEAN_MOTION_DDOT": 0}, "tle": {"line1": "1 46449U 99025EZE 25331.83127811  .00001244  00000+0  50384-3 0  9990", "line2": "2 46449  98.6463   6.5721 0202950 314.0231  44.4375 14.19021773574253"}}, "geometry": {"type": "Point", "coordinates": [-177.00235973595025, -46.61016997893257]}}]}